[{"OBJECT_NAME":"YAOGAN-43 01E","OBJECT_ID":"2024-148E","EPOCH":"2026-03-09T10:46:29.401824","MEAN_MOTION":15.23061231,"ECCENTRICITY":0.00047279,"INCLINATION":34.9939,"RA_OF_ASC_NODE":67.5277,"ARG_OF_PERICENTER":25.6868,"MEAN_ANOMALY":334.4081,"EPHEMERIS_TYPE":0,"CLASSIFICATION_TYPE":"U","NORAD_CAT_ID":60462,"ELEMENT_SET_NO":999,"REV_AT_EPOCH":8694,"BSTAR":0.00071899242,"MEAN_MOTION_DOT":0.0001736,"MEAN_MOTION_DDOT":0},{"OBJECT_NAME":"STARLINK-35764","OBJECT_ID":"2025-299H","EPOCH":"2026-03-09T22:00:01.999584","MEAN_MOTION":15.33219164,"ECCENTRICITY":0.00011543,"INCLINATION":43.0006,"RA_OF_ASC_NODE":167.6811,"ARG_OF_PERICENTER":268.9398,"MEAN_ANOMALY":10.8948,"EPHEMERIS_TYPE":0,"CLASSIFICATION_TYPE":"U","NORAD_CAT_ID":67109,"ELEMENT_SET_NO":999,"REV_AT_EPOCH":589,"BSTAR":-0.068626108,"MEAN_MOTION_DOT":-0.02032733,"MEAN_MOTION_DDOT":0}]
